[{"OBJECT_NAME":"MONITOR-4 (RS57S)","OBJECT_ID":"2023-091S","EPOCH":"2026-03-09T23:02:36.101184","MEAN_MOTION":15.25833519,"ECCENTRICITY":0.00137053,"INCLINATION":97.5193,"RA_OF_ASC_NODE":131.7407,"ARG_OF_PERICENTER":91.587,"MEAN_ANOMALY":268.6938,"EPHEMERIS_TYPE":0,"CLASSIFICATION_TYPE":"U","NORAD_CAT_ID":57182,"ELEMENT_SET_NO":999,"REV_AT_EPOCH":14915,"BSTAR":0.00052093098,"MEAN_MOTION_DOT":0.000133,"MEAN_MOTION_DDOT":0},{"OBJECT_NAME":"STARLINK-32755","OBJECT_ID":"2025-019P","EPOCH":"2026-03-09T10:28:48.043488","MEAN_MOTION":15.27582546,"ECCENTRICITY":0.00013548,"INCLINATION":43.004,"RA_OF_ASC_NODE":83.3654,"ARG_OF_PERICENTER":265.6752,"MEAN_ANOMALY":94.3945,"EPHEMERIS_TYPE":0,"CLASSIFICATION_TYPE":"U","NORAD_CAT_ID":62842,"ELEMENT_SET_NO":999,"REV_AT_EPOCH":6229,"BSTAR":0.0013433542,"MEAN_MOTION_DOT":0.00036892,"MEAN_MOTION_DDOT":0}]
